NORAD_CAT_ID,OBJECT_NAME,OBJECT_TYPE,EPOCH,MEAN_MOTION,ECCENTRICITY,INCLINATION,RA_OF_ASC_NODE,ARG_OF_PERICENTER,MEAN_ANOMALY,BSTAR,MEAN_MOTION_DOT,MEAN_MOTION_DDOT,TLE_LINE0,TLE_LINE1,TLE_LINE2,SEMIMAJOR_AXIS,PERIOD,APOGEE,PERIGEE,DECAYED
55286.0,STARLINK-5338,PAYLOAD,2023-10-09 13:31:14,14.98328705,0.0003201,69.9994,88.6762,270.5275,89.5517,-1.3906e-05,-2.59e-06,0.0,0 STARLINK-5338,1 55286U 23010T   23282.56336374 -.00000259  00000-0 -13906-4 0  9997,2 55286  69.9994  88.6762 0003201 270.5275  89.5517 14.98328705 41136,6950.197,96.107,574.287,569.837,0.0
55286.0,STARLINK-5338,PAYLOAD,2023-10-09 21:31:55,14.9832791,0.0003115,69.9979,87.8334,267.2482,92.8321,-2.8617e-05,-4.34e-06,0.0,0 STARLINK-5338,1 55286U 23010T   23282.89716496 -.00000434  00000-0 -28617-4 0  9990,2 55286  69.9979  87.8334 0003115 267.2482  92.8321 14.98327910 41184,6950.199,96.107,574.229,569.899,0.0
55286.0,STARLINK-5338,PAYLOAD,2023-10-10 13:33:16,14.98322055,0.0003375,69.9989,86.1513,275.5647,84.5127,-5.9223e-05,-7.99e-06,0.0,0 STARLINK-5338,1 55286U 23010T   23283.56477217 -.00000799  00000-0 -59223-4 0  9991,2 55286  69.9989  86.1513 0003375 275.5647  84.5127 14.98322055 41287,6950.217,96.108,574.428,569.737,0.0
55286.0,STARLINK-5338,PAYLOAD,2023-10-10 19:57:48,14.98326881,0.0003266,69.9995,85.4784,273.6501,86.4284,-4.5447e-06,-1.47e-06,0.0,0 STARLINK-5338,1 55286U 23010T   23283.83180860 -.00000147  00000-0 -45447-5 0  9997,2 55286  69.9995  85.4784 0003266 273.6501  86.4284 14.98326881 41324,6950.203,96.107,574.337,569.798,0.0
55286.0,STARLINK-5338,PAYLOAD,2023-10-11 10:23:00,14.98331169,0.0003456,69.9994,83.963,272.0655,88.0108,4.2023e-05,4.08e-06,0.0,0 STARLINK-5338,1 55286U 23010T   23284.43264354  .00000408  00000-0  42023-4 0  9999,2 55286  69.9994  83.9630 0003456 272.0655  88.0108 14.98331169 41104,6950.189,96.107,574.456,569.652,0.0
55286.0,STARLINK-5338,PAYLOAD,2023-10-11 13:35:16,14.98334096,0.000338,69.9994,83.6265,273.1853,86.8919,8.3393e-05,9.02e-06,0.0,0 STARLINK-5338,1 55286U 23010T   23284.56616065  .00000902  00000-0  83393-4 0  9997,2 55286  69.9994  83.6265 0003380 273.1853  86.8919 14.98334096 41437,6950.18,96.107,574.394,569.696,0.0
55286.0,STARLINK-5338,PAYLOAD,2023-10-11 18:23:40,14.98336994,0.0003258,69.9997,83.1217,270.8584,89.2201,0.00011535,1.284e-05,0.0,0 STARLINK-5338,1 55286U 23010T   23284.76643719  .00001284  00000-0  11535-3 0  9997,2 55286  69.9997  83.1217 0003258 270.8584  89.2201 14.98336994 41150,6950.171,96.107,574.301,569.772,0.0
55286.0,STARLINK-5338,PAYLOAD,2023-10-12 13:37:17,14.98325079,0.0003242,70.0001,81.1021,271.4825,88.5963,-2.6482e-05,-4.09e-06,0.0,0 STARLINK-5338,1 55286U 23010T   23285.56756807 -.00000409  00000-0 -26482-4 0  9997,2 55286  70.0001  81.1021 0003242 271.4825  88.5963 14.98325079 41584,6950.208,96.107,574.326,569.82,0.0
55286.0,STARLINK-5338,PAYLOAD,2023-10-12 20:01:49,14.9832881,0.0003203,70.0002,80.4288,271.1175,88.9617,1.5772e-05,9.5e-07,0.0,0 STARLINK-5338,1 55286U 23010T   23285.83460474  .00000095  00000-0  15772-4 0  9998,2 55286  70.0002  80.4288 0003203 271.1175  88.9617 14.98328810 41311,6950.197,96.107,574.288,569.835,0.0
55286.0,STARLINK-5338,PAYLOAD,2023-10-13 13:39:18,14.98335675,0.0003094,70.0006,78.5778,270.3809,89.6996,-7.1347e-05,-9.44e-06,0.0,0 STARLINK-5338,1 55286U 23010T   23286.56896179 -.00000944  00000-0 -71347-4 0  9999,2 55286  70.0006  78.5778 0003094 270.3809  89.6996 14.98335675 41731,6950.175,96.107,574.191,569.89,0.0
55286.0,STARLINK-5338,PAYLOAD,2023-10-13 20:03:50,14.9833954,0.0003026,70.0007,77.9041,268.9569,91.1243,-1.0064e-05,-2.13e-06,0.0,0 STARLINK-5338,1 55286U 23010T   23286.83599629 -.00000213  00000-0 -10064-4 0  9997,2 55286  70.0007  77.9041 0003026 268.9569  91.1243 14.98339540 41467,6950.163,96.106,574.132,569.925,0.0
55286.0,STARLINK-5338,PAYLOAD,2023-10-14 10:29:02,14.98329428,0.0003115,70.0002,76.388,270.383,89.6973,4.7723e-05,4.76e-06,0.0,0 STARLINK-5338,1 55286U 23010T   23287.43683875  .00000476  00000-0  47723-4 0  9992,2 55286  70.0002  76.3880 0003115 270.3830  89.6973 14.98329428 41559,6950.195,96.107,574.225,569.895,0.0
55286.0,STARLINK-5338,PAYLOAD,2023-10-14 13:41:19,14.98328442,0.0003125,70.0001,76.0514,270.3911,89.689,3.5338e-05,3.29e-06,0.0,0 STARLINK-5338,1 55286U 23010T   23287.57035969  .00000329  00000-0  35338-4 0  9998,2 55286  70.0001  76.0514 0003125 270.3911  89.6890 14.98328442 41889,6950.198,96.107,574.235,569.891,0.0
55286.0,STARLINK-5338,PAYLOAD,2023-10-14 20:05:51,14.98331159,0.0003176,70.0003,75.3789,270.9925,89.087,2.7074e-05,2.3e-06,0.0,0 STARLINK-5338,1 55286U 23010T   23287.83739810  .00000230  00000-0  27074-4 0  9992,2 55286  70.0003  75.3789 0003176 270.9925  89.0870 14.98331159 41920,6950.189,96.107,574.262,569.847,0.0
55286.0,STARLINK-5338,PAYLOAD,2023-10-15 12:07:12,14.98326228,0.0002995,70.0007,73.6956,271.8053,88.2763,-8.342e-05,-1.088e-05,0.0,0 STARLINK-5338,1 55286U 23010T   23288.50500556 -.00001088  00000-0 -83420-4 0  9991,2 55286  70.0007  73.6956 0002995 271.8053  88.2763 14.98326228 41711,6950.205,96.107,574.151,569.988,0.0
55286.0,STARLINK-5338,PAYLOAD,2023-10-15 13:43:20,14.98326233,0.000299,70.0007,73.5273,271.8806,88.201,-8.0097e-05,-1.048e-05,0.0,0 STARLINK-5338,1 55286U 23010T   23288.57176559 -.00001048  00000-0 -80097-4 0  9993,2 55286  70.0007  73.5273 0002990 271.8806  88.2010 14.98326233 42030,6950.205,96.107,574.148,569.991,0.0
55286.0,STARLINK-5338,PAYLOAD,2023-10-15 20:07:52,14.98328187,0.0002982,70.0008,72.8541,271.0819,88.9998,-5.4062e-05,-7.38e-06,0.0,0 STARLINK-5338,1 55286U 23010T   23288.83880394 -.00000738  00000-0 -54062-4 0  9999,2 55286  70.0008  72.8541 0002982 271.0819  88.9998 14.98328187 42074,6950.198,96.107,574.136,569.991,0.0
55286.0,STARLINK-5338,PAYLOAD,2023-10-16 12:09:12,14.98331664,0.0003084,70.0007,71.1709,273.4368,86.6438,1.7851e-05,1.2e-06,0.0,0 STARLINK-5338,1 55286U 23010T   23289.50639923  .00000120  00000-0  17851-4 0  9992,2 55286  70.0007  71.1709 0003084 273.4368  86.6438 14.98331664 41864,6950.188,96.107,574.196,569.909,0.0
55286.0,STARLINK-5338,PAYLOAD,2023-10-16 13:45:20,14.98331821,0.0003083,70.0006,71.0026,273.428,86.6527,1.9268e-05,1.37e-06,0.0,0 STARLINK-5338,1 55286U 23010T   23289.57315903  .00000137  00000-0  19268-4 0  9990,2 55286  70.0006  71.0026 0003083 273.4280  86.6527 14.98331821 42186,6950.187,96.107,574.195,569.91,0.0
55286.0,STARLINK-5338,PAYLOAD,2023-10-16 16:57:36,14.98333537,0.0002994,70.0009,70.6666,270.9488,89.1328,4.2841e-05,4.18e-06,0.0,0 STARLINK-5338,1 55286U 23010T   23289.70667700  .00000418  00000-0  42841-4 0  9995,2 55286  70.0009  70.6666 0002994 270.9488  89.1328 14.98333537 42202,6950.182,96.107,574.128,569.966,0.0
55286.0,STARLINK-5338,PAYLOAD,2023-10-17 12:11:13,14.98328644,0.0003115,70.0005,68.6461,271.9353,88.1449,4.8083e-05,4.81e-06,0.0,0 STARLINK-5338,1 55286U 23010T   23290.50779928  .00000481  00000-0  48083-4 0  9995,2 55286  70.0005  68.6461 0003115 271.9353  88.1449 14.98328644 42011,6950.197,96.107,574.227,569.897,0.0
55286.0,STARLINK-5338,PAYLOAD,2023-10-18 02:36:26,14.98330105,0.000313,70.0006,67.1313,272.0864,87.9937,1.0728e-05,3.5e-07,0.0,0 STARLINK-5338,1 55286U 23010T   23291.10863931  .00000035  00000-0  10728-4 0  9990,2 55286  70.0006  67.1313 0003130 272.0864  87.9937 14.98330105 42416,6950.193,96.107,574.233,569.882,0.0
55286.0,STARLINK-5338,PAYLOAD,2023-10-18 12:13:15,14.98327533,0.0002964,70.0008,66.1221,272.3347,87.7473,-7.7449e-05,-1.017e-05,0.0,0 STARLINK-5338,1 55286U 23010T   23291.50920398 -.00001017  00000-0 -77449-4 0  9991,2 55286  70.0008  66.1221 0002964 272.3347  87.7473 14.98327533 42164,6950.201,96.107,574.126,570.005,0.0
55286.0,STARLINK-5338,PAYLOAD,2023-10-19 12:15:15,14.98336367,0.0003006,70.0005,63.5963,271.9038,88.1777,6.379e-05,6.68e-06,0.0,0 STARLINK-5338,1 55286U 23010T   23292.51059277  .00000668  00000-0  63790-4 0  9995,2 55286  70.0005  63.5963 0003006 271.9038  88.1777 14.98336367 42319,6950.173,96.107,574.127,569.949,0.0
55286.0,STARLINK-5338,PAYLOAD,2023-10-20 12:17:16,14.98327428,0.0002728,69.9985,61.0674,264.6372,95.4476,5.7271e-06,-2.5e-07,0.0,0 STARLINK-5338,1 55286U 23010T   23293.51199700 -.00000025  00000-0  57271-5 0  9998,2 55286  69.9985  61.0674 0002728 264.6372  95.4476 14.98327428 42466,6950.201,96.107,573.962,570.17,0.0
55286.0,STARLINK-5338,PAYLOAD,2023-10-20 18:41:49,14.98322561,0.0002991,69.9996,60.3962,266.9169,93.1648,-5.682e-05,-7.71e-06,0.0,0 STARLINK-5338,1 55286U 23010T   23293.77904243 -.00000771  00000-0 -56820-4 0  9999,2 55286  69.9996  60.3962 0002991 266.9169  93.1648 14.98322561 42819,6950.216,96.107,574.16,570.002,0.0
55286.0,STARLINK-5338,PAYLOAD,2023-10-21 12:19:17,14.9833565,0.000298,69.9997,58.5444,266.5158,93.566,-5.156e-05,-7.08e-06,0.0,0 STARLINK-5338,1 55286U 23010T   23294.51339382 -.00000708  00000-0 -51560-4 0  9994,2 55286  69.9997  58.5444 0002980 266.5158  93.5660 14.98335650 42615,6950.175,96.107,574.112,569.969,0.0
55286.0,STARLINK-5338,PAYLOAD,2023-10-21 18:43:48,14.98340732,0.0002963,70.0008,57.873,273.9285,86.1536,1.9026e-05,1.34e-06,0.0,0 STARLINK-5338,1 55286U 23010T   23294.78042755  .00000134  00000-0  19026-4 0  9990,2 55286  70.0008  57.8730 0002963 273.9285  86.1536 14.98340732 42656,6950.16,96.106,574.084,569.965,0.0
55286.0,STARLINK-5338,PAYLOAD,2023-10-22 01:08:21,14.98322983,0.000287,70.0001,57.1984,277.5236,82.5597,5.4964e-05,5.63e-06,0.0,0 STARLINK-5338,1 55286U 23010T   23295.04747611  .00000563  00000-0  54964-4 0  9999,2 55286  70.0001  57.1984 0002870 277.5236  82.5597 14.98322983 42695,6950.215,96.107,574.074,570.085,0.0
55286.0,STARLINK-5338,PAYLOAD,2023-10-22 12:21:19,14.98314269,0.0002914,70.0015,56.0234,270.72,89.3625,6.3798e-06,-1.7e-07,0.0,0 STARLINK-5338,1 55286U 23010T   23295.51480555 -.00000017  00000-0  63798-5 0  9993,2 55286  70.0015  56.0234 0002914 270.7200  89.3625 14.98314269 42764,6950.242,96.108,574.132,570.081,0.0
